IRIDIUM 119             
1 42959U 17061E   25360.79845601  .00000352  00000+0  11848-3 0  9994
2 42959  86.3972  97.3404 0001909 101.5704 258.5707 14.34218807430100
IRIDIUM 107             
1 42960U 17061F   25361.02679067  .00000007  00000+0 -45740-5 0  9992
2 42960  86.3970  97.2652 0002260 106.4825 253.6619 14.34217612430148
IRIDIUM 132             
1 42961U 17061G   25360.82382782 -.00000016  00000+0 -12916-4 0  9994
2 42961  86.3972  97.3307 0002056 100.5606 259.5822 14.34217318430115
IRIDIUM 136             
1 42962U 17061H   25360.78577159 -.00000020  00000+0 -14347-4 0  9999
2 42962  86.3971  97.3523 0001939 100.8505 259.2910 14.34217523430129
IRIDIUM 139             
1 42963U 17061J   25361.00142002  .00000110  00000+0  32057-4 0  9997
2 42963  86.3974  97.3214 0002207 100.7218 259.4226 14.34218025430163
IRIDIUM 125             
1 42964U 17061K   25361.19803844  .00000076  00000+0  20079-4 0  9998
2 42964  86.3973  97.2972 0002122 112.6137 247.5284 14.34216417430201
IRIDIUM 135             
1 43070U 17083A   25361.17216635  .00000103  00000+0  29667-4 0  9998
2 43070  86.3954  33.9086 0002113  91.8599 268.2838 14.34217738419492
IRIDIUM 138             
1 43071U 17083B   25361.12776705  .00000191  00000+0  61213-4 0  9993
2 43071  86.3969  33.5963 0001853  99.7573 260.3832 14.34217872419472
